UNKNOWN                 
1 87557U          26046.08854665  .00003239  00000+0  71304-2 0  9995
2 87557 101.7593 275.0260 0067846 249.3906 109.9922 13.28385605573576
UNKNOWN                 
1 87561U          26048.63654050  .00000002  00000+0  35805-3 0  9991
2 87561 101.9988 109.3011 0176020 170.7526 344.4958 12.32165577550673
UNKNOWN                 
1 87565U          26043.78655710  .00001866  00000+0  10207-2 0  9997
2 87565  99.9502  46.4775 0171634   3.1182 357.1011 14.06188015625158
UNKNOWN                 
1 87569U          26047.47906512 -.00000023  00000+0  13016-3 0  9997
2 87569 101.9920 232.3676 0055778 124.4384 265.1439 12.68543443566801
UNKNOWN                 
1 87587U          26028.68255445  .00000452  00000+0  15144-3 0  9990
2 87587  74.0253  16.0833 0019469  38.0722 322.1804 14.40092266640565
UNKNOWN                 
1 87590U          26047.05495440  .00000632  00000+0  37848-3 0  9992
2 87590  98.7788  87.6658 0027537  99.8538 290.7954 14.10427501163454
UNKNOWN                 
1 87616U          26048.31216424  .00000913  00000+0  32828-2 0  9998
2 87616  66.0380  17.6541 0624914 110.2738  10.3424 12.46935943544536
UNKNOWN                 
1 87624U          26044.79891965  .00006531  00000+0  10000-2 0  9994
2 87624  98.6864 351.3022 0098256  51.5590 309.4383 14.70829651589545
UNKNOWN                 
1 87650U          26039.34859461  .00013131  00000+0  25279-2 0  9991
2 87650 100.2708 233.5291 0030195 112.3966 248.0433 14.63453892 88181
UNKNOWN                 
1 87672U          26036.97742497  .00003047  00000+0  12206-2 0  9992
2 87672  70.8541 247.3000 0059054 190.9104 169.0748 14.28150394632340
UNKNOWN                 
1 87681U          26046.11922235  .00001003  00000+0  11067-2 0  9993
2 87681  66.7381 306.1716 0149628 118.3394 243.2858 13.71275701610661
UNKNOWN                 
1 87690U          26041.81905061  .00003070  00000+0  46245-3 0  9996
2 87690  65.7911 197.7038 0580281  16.6384 345.2871 14.01290495615791
UNKNOWN                 
1 87706U          26048.49721746  .00003514  00000+0  61269-3 0  9997
2 87706  98.6746 240.6999 0104507  60.9356 328.8756 14.65171821588292
UNKNOWN                 
1 87725U          26039.43050443  .00068842  00000+0  48417-2 0  9995
2 87725  82.8615 202.9330 0012006 237.4965 122.5103 15.04701640642571
UNKNOWN                 
1 87730U          26044.11984586  .00000101  00000+0  90442-4 0  9997
2 87730  82.9464 187.9488 0029978 187.6759 172.3942 13.74517922593908
UNKNOWN                 
1 87737U          26040.10075098  .00000035  00000+0  80408-4 0  9995
2 87737  99.3699 275.6170 0133708  37.8316 323.2138 13.72352323611862
UNKNOWN                 
1 87764U          26048.23333664  .00011792  00000+0  19381-2 0  9995
2 87764  65.6743 339.2705 0359328  41.8226 103.2462 14.36039704628660
UNKNOWN                 
1 87771U          26045.37889025  .00000094  00000+0  34120-3 0  9994
2 87771 100.7430 247.9272 0119467 218.0625 141.2004 13.19536443543487
UNKNOWN                 
1 87782U          26045.61178213  .00003004  00000+0  10008-1 0  9994
2 87782 102.3594 290.6874 0041012  71.7154 288.8399 13.00772457576299
UNKNOWN                 
1 87843U          26036.01782186  .00002489  00000+0  56487-2 0  9994
2 87843  99.6587 150.6017 0245138 236.3526 121.3988 13.16820758571305
UNKNOWN                 
1 87845U          26044.32687299  .00002697  00000+0  50348-2 0  9999
2 87845  98.8654 354.5744 0577938 109.3780 257.0708 12.89142365573277
UNKNOWN                 
1 87878U          26045.79490270  .00003006  00000+0  93693-3 0  9994
2 87878  99.1582 174.8129 0035241  80.0236 280.4925 14.41338221620524
UNKNOWN                 
1 87884U          26048.53929456  .00000079  00000+0  67292-4 0  9993
2 87884  98.7316 155.0440 0153186 240.0628 118.5255 14.06034589627750
UNKNOWN                 
1 87991U          26043.95664775  .00004469  00000+0  87600-2 0  9993
2 87991  28.6243 358.7144 0892262 103.3584 266.7867 12.35546533530698
UNKNOWN                 
1 89005U          26047.97487289  .00004995  00000+0  11275-2 0  9999
2 89005  97.8403 237.1781 0190251 187.4097 172.4278 14.46096137543664
UNKNOWN                 
1 89029U          26035.99064593  .00008279  00000+0  75403-3 0  9996
2 89029  98.0469 301.6350 0022937 142.0484 218.2357 14.95225167659189
UNKNOWN                 
1 89101U          26046.77284677 -.00000363  00000+0 -94988-3 0  9999
2 89101 100.4688 346.4281 0147372 323.4013  35.7095 13.04029476563320
UNKNOWN                 
1 89132U          26047.81055694  .00006008  00000+0  77573-2 0  9994
2 89132  63.4386 333.6074 2930246 319.6670  21.9483  8.87777207330971
UNKNOWN                 
1 89146U          26046.25747192  .00004233  00000+0  77280-3 0  9991
2 89146  98.2517 340.0220 0090942 212.7550 146.7995 14.63833308638310
UNKNOWN                 
1 89161U          26047.84830569  .00241750  00000+0  28031-2 0  9991
2 89161  97.6454  72.4714 0024490 173.3298 186.8289 15.60651688558814
UNKNOWN                 
1 89172U          26047.28283136  .00012340  00000+0  19426-2 0  9992
2 89172  82.0652 160.3417 0283842  79.4004 283.9023 14.48847941611370
UNKNOWN                 
1 89177U          26020.84689767  .00000126  00000+0  11791-3 0  9997
2 89177  82.9182 240.1233 0033216  35.5386 324.7972 13.73733405 68198
UNKNOWN                 
1 89183U          26047.22603107  .00000643  00000+0  60247-3 0  9993
2 89183  99.2188 321.8124 0130885 342.8405  16.8345 13.81677692616011
UNKNOWN                 
1 89184U          26048.61282085  .00020292  00000+0  23687-2 0  9994
2 89184  98.3855 281.6318 0008983 285.9398  74.0826 14.85166455502088
UNKNOWN                 
1 89213U          26043.89215613  .00000507  00000+0  35118-3 0  9995
2 89213  98.7752 278.7647 0227227 316.1248  42.2059 13.91677810461311
UNKNOWN                 
1 89251U          26048.15457043  .00016159  00000+0  91989-2 0  9993
2 89251  62.4728 276.4961 2828017 106.8181 285.8900  9.26398497379338
UNKNOWN                 
1 89261U          26030.70311728  .00001315  00000+0  40260-3 0  9990
2 89261  98.1574  28.0262 0013268  16.1159 344.0451 14.43240828540876
UNKNOWN                 
1 89304U          26023.41907521  .00069887  00000+0  62545-1 0  9996
2 89304  84.3296  92.8600 2876157 291.7160  59.5526  9.06672246442177
UNKNOWN                 
1 89349U          26047.83550987 -.00000091  00000+0 -34530-3 0  9996
2 89349  90.2500   8.8282 0031850  90.1070 270.3700 12.96274068487310
UNKNOWN                 
1 89379U          26047.04157658  .00003799  00000+0  48616-2 0  9995
2 89379 100.4789  72.1885 0040164 320.8005  39.0227 13.63317718589679
UNKNOWN                 
1 89395U          26044.43857529  .00000491  00000+0  60043-2 0  9991
2 89395 102.3782  14.1886 0225640  18.6493 107.2692 12.01529160532270
UNKNOWN                 
1 89403U          26045.37260324  .00001275  00000+0  42748-2 0  9999
2 89403  90.2490   7.2433 0032280  50.4825 104.7015 12.98822818486081
UNKNOWN                 
1 89484U          26045.22613823  .00117851  00000+0  53476-1 0  9995
2 89484  83.9641 136.2193 2874113 301.9372  33.3280  9.22722869361266
UNKNOWN                 
1 89493U          26047.41671234  .00003003  00000+0  14754-2 0  9998
2 89493  99.0193 122.1844 0082639 212.4896 147.1176 14.16693196473241
UNKNOWN                 
1 89494U          26045.14337784  .00002749  00000+0  13539-2 0  9992
2 89494  99.0202 119.7569 0083261 219.1925 140.3200 14.16612560472774
